ONEWEB-0156             
1 48052U 21025L   24063.22150863 -.00000154  00000+0 -45648-3 0  9992
2 48052  87.8964 126.6315 0001772 104.7696 255.3630 13.13470435143842
ONEWEB-0161             
1 48053U 21025M   24062.66130049 -.00000307  00000+0 -87684-3 0  9990
2 48053  87.8967 126.7475 0001764 104.6304 255.5021 13.13468976143696
ONEWEB-0158             
1 48054U 21025N   24062.69940226  .00000287  00000+0  75139-3 0  9997
2 48054  87.8961 126.7331 0002152 100.3057 259.8315 13.13470642143823
ONEWEB-0157             
1 48055U 21025P   24063.18025686 -.00000221  00000+0 -63960-3 0  9996
2 48055  87.8962 126.6528 0001977 121.6025 238.5297 13.13468770143830
ONEWEB-0162             
1 48056U 21025Q   24063.21993859  .00000078  00000+0  17787-3 0  9991
2 48056  87.8962 126.6434 0002049 103.7077 256.4281 13.13469955143788
ONEWEB-0155             
1 48057U 21025R   24062.70732910  .00000290  00000+0  75899-3 0  9998
2 48057  87.8962 126.7540 0001939 100.9143 259.2204 13.13469283143878
ONEWEB-0149             
1 48058U 21025S   24063.18501728 -.00000016  00000+0 -77773-4 0  9995
2 48058  87.8962 126.6556 0002148 107.8923 252.2441 13.13468251143757
ONEWEB-0148             
1 48059U 21025T   24062.69302964 -.00000075  00000+0 -24147-3 0  9993
2 48059  87.8963 126.7597 0002190 119.6402 240.4945 13.13470007143801
